NORAD_CAT_ID,OBJECT_NAME,OBJECT_TYPE,EPOCH,MEAN_MOTION,ECCENTRICITY,INCLINATION,RA_OF_ASC_NODE,ARG_OF_PERICENTER,MEAN_ANOMALY,BSTAR,MEAN_MOTION_DOT,MEAN_MOTION_DDOT,TLE_LINE0,TLE_LINE1,TLE_LINE2,SEMIMAJOR_AXIS,PERIOD,APOGEE,PERIGEE,DECAYED
54099.0,STARLINK-5198,PAYLOAD,2023-06-13 08:29:32,15.08838298,0.0001211,53.2157,144.3571,87.1653,272.9477,1.1199e-05,-1.1e-06,0.0,0 STARLINK-5198,1 54099U 22136BA  23164.35384858 -.00000110  00000-0  11199-4 0  9999,2 54099  53.2157 144.3571 0001211  87.1653 272.9477 15.08838298 35976,6917.886,95.438,540.588,538.913,0.0
54099.0,STARLINK-5198,PAYLOAD,2023-06-13 22:48:00,15.08837021,0.0001212,53.2155,141.6795,93.8768,266.2363,-2.123e-05,-6.26e-06,0.0,0 STARLINK-5198,1 54099U 22136BA  23164.95001104 -.00000626  00000-0 -21230-4 0  9995,2 54099  53.2155 141.6795 0001212  93.8768 266.2363 15.08837021 36530,6917.889,95.438,540.593,538.916,0.0
54099.0,STARLINK-5198,PAYLOAD,2023-06-14 01:58:47,15.08838155,0.0001206,53.2155,141.0847,94.0631,266.0499,-1.0285e-05,-4.52e-06,0.0,0 STARLINK-5198,1 54099U 22136BA  23165.08249014 -.00000452  00000-0 -10285-4 0  9999,2 54099  53.2155 141.0847 0001206  94.0631 266.0499 15.08838155 36084,6917.886,95.438,540.585,538.917,0.0
54099.0,STARLINK-5198,PAYLOAD,2023-06-15 05:00:20,15.088377,0.0001192,53.2157,136.03,92.2254,267.8875,6.1511e-05,6.91e-06,0.0,0 STARLINK-5198,1 54099U 22136BA  23166.20857016  .00000691  00000-0  61511-4 0  9992,2 54099  53.2157 136.0300 0001192  92.2254 267.8875 15.08837700 36722,6917.887,95.438,540.577,538.928,0.0
54099.0,STARLINK-5198,PAYLOAD,2023-06-16 04:51:07,15.0884301,0.0001136,53.2159,131.5699,91.2342,268.8781,7.9855e-05,9.83e-06,0.0,0 STARLINK-5198,1 54099U 22136BA  23167.20216806  .00000983  00000-0  79855-4 0  9993,2 54099  53.2159 131.5699 0001136  91.2342 268.8781 15.08843010 36403,6917.871,95.437,540.522,538.95,0.0
54099.0,STARLINK-5198,PAYLOAD,2023-06-16 14:23:26,15.08840544,0.0001122,53.216,129.7858,89.6062,270.5059,6.8447e-05,8.02e-06,0.0,0 STARLINK-5198,1 54099U 22136BA  23167.59960954  .00000802  00000-0  68447-4 0  9990,2 54099  53.2160 129.7858 0001122  89.6062 270.5059 15.08840544 36469,6917.879,95.438,540.52,538.968,0.0
54099.0,STARLINK-5198,PAYLOAD,2023-06-16 22:20:22,15.08834925,0.0001128,53.2162,128.2988,89.3557,270.7564,-1.8684e-05,-5.85e-06,0.0,0 STARLINK-5198,1 54099U 22136BA  23167.93081629 -.00000585  00000-0 -18684-4 0  9999,2 54099  53.2162 128.2988 0001128  89.3557 270.7564 15.08834925 36987,6917.896,95.438,540.541,538.981,0.0
54099.0,STARLINK-5198,PAYLOAD,2023-06-17 06:17:17,15.08841132,0.0001163,53.2157,126.8132,97.2365,262.8759,3.8778e-05,3.29e-06,0.0,0 STARLINK-5198,1 54099U 22136BA  23168.26201062  .00000329  00000-0  38778-4 0  9991,2 54099  53.2157 126.8132 0001163  97.2365 262.8759 15.08841132 37033,6917.877,95.437,540.546,538.937,0.0
54099.0,STARLINK-5198,PAYLOAD,2023-06-17 14:14:13,15.08834395,0.0001137,53.2162,125.3253,90.0642,270.0481,-1.1927e-05,-4.78e-06,0.0,0 STARLINK-5198,1 54099U 22136BA  23168.59321703 -.00000478  00000-0 -11927-4 0  9996,2 54099  53.2162 125.3253 0001137  90.0642 270.0481 15.08834395 37088,6917.898,95.438,540.549,538.976,0.0
54099.0,STARLINK-5198,PAYLOAD,2023-06-17 22:11:10,15.08823141,0.0001191,53.2159,123.8392,92.5477,267.5651,3.8076e-05,3.18e-06,0.0,0 STARLINK-5198,1 54099U 22136BA  23168.92442299  .00000318  00000-0  38076-4 0  9992,2 54099  53.2159 123.8392 0001191  92.5477 267.5651 15.08823141 37137,6917.932,95.439,540.621,538.973,0.0
54099.0,STARLINK-5198,PAYLOAD,2023-06-18 06:08:05,15.0882039,0.0001168,53.2159,122.3523,92.5376,267.575,0.00014951,2.091e-05,0.0,0 STARLINK-5198,1 54099U 22136BA  23169.25562418  .00002091  00000-0  14951-3 0  9990,2 54099  53.2159 122.3523 0001168  92.5376 267.5750 15.08820390 36715,6917.94,95.439,540.613,538.997,0.0
54099.0,STARLINK-5198,PAYLOAD,2023-06-18 14:05:01,15.08837984,0.0001162,53.2161,120.8655,90.3961,269.7164,-2.3077e-05,-6.55e-06,0.0,0 STARLINK-5198,1 54099U 22136BA  23169.58681858 -.00000655  00000-0 -23077-4 0  9992,2 54099  53.2161 120.8655 0001162  90.3961 269.7164 15.08837984 37235,6917.887,95.438,540.555,538.948,0.0
54099.0,STARLINK-5198,PAYLOAD,2023-06-19 05:58:51,15.0884424,0.0001179,53.2161,117.8906,92.7445,267.3682,7.2228e-05,8.62e-06,0.0,0 STARLINK-5198,1 54099U 22136BA  23170.24921232  .00000862  00000-0  72228-4 0  9990,2 54099  53.2161 117.8906 0001179  92.7445 267.3682 15.08844240 37334,6917.867,95.437,540.548,538.917,0.0
54099.0,STARLINK-5198,PAYLOAD,2023-06-19 13:55:48,15.08839889,0.0001077,53.216,116.4045,93.3421,266.7694,2.2111e-05,6.4e-07,0.0,0 STARLINK-5198,1 54099U 22136BA  23170.58041686  .00000064  00000-0  22111-4 0  9993,2 54099  53.2160 116.4045 0001077  93.3421 266.7694 15.08839889 36912,6917.881,95.438,540.491,539.001,0.0
54099.0,STARLINK-5198,PAYLOAD,2023-06-20 02:38:53,15.0882868,0.0001142,53.2162,114.0249,94.7787,265.3336,0.00018388,2.639e-05,0.0,0 STARLINK-5198,1 54099U 22136BA  23171.11034112  .00002639  00000-0  18388-3 0  9999,2 54099  53.2162 114.0249 0001142  94.7787 265.3336 15.08828680 37463,6917.915,95.438,540.57,538.99,0.0
54099.0,STARLINK-5198,PAYLOAD,2023-06-20 05:49:39,15.08841087,0.000119,53.2159,113.4287,97.7398,262.373,9.2442e-05,1.184e-05,0.0,0 STARLINK-5198,1 54099U 22136BA  23171.24281517  .00001184  00000-0  92442-4 0  9994,2 54099  53.2159 113.4287 0001190  97.7398 262.3730 15.08841087 37481,6917.877,95.437,540.565,538.919,0.0
54099.0,STARLINK-5198,PAYLOAD,2023-06-20 13:46:35,15.0884065,0.0001253,53.2164,111.9446,81.6977,278.4157,6.4856e-05,7.44e-06,0.0,0 STARLINK-5198,1 54099U 22136BA  23171.57401683  .00000744  00000-0  64856-4 0  9997,2 54099  53.2164 111.9446 0001253  81.6977 278.4157 15.08840650 37062,6917.878,95.438,540.61,538.877,0.0
54099.0,STARLINK-5198,PAYLOAD,2023-06-21 02:29:39,15.08872395,0.0001174,53.2165,109.5625,100.0338,260.0787,-0.00026831,-4.559e-05,0.0,0 STARLINK-5198,1 54099U 22136BA  23172.10392900 -.00004559  00000-0 -26831-3 0  9998,2 54099  53.2165 109.5625 0001174 100.0338 260.0787 15.08872395 37612,6917.781,95.436,540.459,538.834,0.0
54099.0,STARLINK-5198,PAYLOAD,2023-06-22 02:20:27,15.08839207,0.0001113,53.2165,105.1022,91.0792,269.0328,-8.5068e-06,-4.23e-06,0.0,0 STARLINK-5198,1 54099U 22136BA  23173.09753948 -.00000423  00000-0 -85068-5 0  9995,2 54099  53.2165 105.1022 0001113  91.0792 269.0328 15.08839207 37762,6917.883,95.438,540.518,538.978,0.0
54099.0,STARLINK-5198,PAYLOAD,2023-06-23 18:05:05,15.08841085,0.0001042,53.2165,97.6723,115.9016,244.2084,7.7525e-06,-1.64e-06,0.0,0 STARLINK-5198,1 54099U 22136BA  23174.75354074 -.00000164  00000-0  77525-5 0  9996,2 54099  53.2165  97.6723 0001042 115.9016 244.2084 15.08841085 38011,6917.877,95.437,540.463,539.021,0.0
54099.0,STARLINK-5198,PAYLOAD,2023-06-24 05:12:47,15.088492,9.18e-05,53.2168,95.5896,108.5357,251.5735,7.3853e-05,8.88e-06,0.0,0 STARLINK-5198,1 54099U 22136BA  23175.21721320  .00000888  00000-0  73853-4 0  9991,2 54099  53.2168  95.5896 0000918 108.5357 251.5735 15.08849200 38087,6917.852,95.437,540.352,539.082,0.0
54099.0,STARLINK-5198,PAYLOAD,2023-06-24 11:34:20,15.08841104,8.99e-05,53.2169,94.4008,105.0149,255.0942,5.9469e-05,6.59e-06,0.0,0 STARLINK-5198,1 54099U 22136BA  23175.48217887  .00000659  00000-0  59469-4 0  9991,2 54099  53.2169  94.4008 0000899 105.0149 255.0942 15.08841104 38129,6917.877,95.437,540.364,539.12,0.0
54099.0,STARLINK-5198,PAYLOAD,2023-06-25 01:52:49,15.08836989,0.0001178,53.2174,91.7235,80.1566,279.9559,-7.3868e-05,-1.463e-05,0.0,0 STARLINK-5198,1 54099U 22136BA  23176.07834899 -.00001463  00000-0 -73868-4 0  9990,2 54099  53.2174  91.7235 0001178  80.1566 279.9559 15.08836989 38218,6917.89,95.438,540.57,538.94,0.0
54099.0,STARLINK-5198,PAYLOAD,2023-06-25 05:03:34,15.08842763,0.0001113,53.2173,91.1295,94.7299,265.382,6.5195e-05,7.5e-06,0.0,0 STARLINK-5198,1 54099U 22136BA  23176.21082066  .00000750  00000-0  65195-4 0  9997,2 54099  53.2173  91.1295 0001113  94.7299 265.3820 15.08842763 38239,6917.872,95.437,540.507,538.967,0.0
54099.0,STARLINK-5198,PAYLOAD,2023-06-27 03:09:46,15.08839542,0.0001017,53.2172,82.5045,92.7244,267.3865,1.4964e-05,-5e-07,0.0,0 STARLINK-5198,1 54099U 22136BA  23178.13178757 -.00000050  00000-0  14964-4 0  9995,2 54099  53.2172  82.5045 0001017  92.7244 267.3865 15.08839542 38520,6917.882,95.438,540.45,539.043,0.0
54099.0,STARLINK-5198,PAYLOAD,2023-06-28 03:00:32,15.08849642,0.0001108,53.2174,78.0435,87.0703,273.0416,8.5428e-05,1.072e-05,0.0,0 STARLINK-5198,1 54099U 22136BA  23179.12537975  .00001072  00000-0  85428-4 0  9993,2 54099  53.2174  78.0435 0001108  87.0703 273.0416 15.08849642 38677,6917.851,95.437,540.482,538.949,0.0
54099.0,STARLINK-5198,PAYLOAD,2023-06-29 02:51:20,15.08840441,0.0001172,53.2178,73.5818,91.995,268.1176,4.6019e-05,4.45e-06,0.0,0 STARLINK-5198,1 54099U 22136BA  23180.11898694  .00000445  00000-0  46019-4 0  9998,2 54099  53.2178  73.5818 0001172  91.9950 268.1176 15.08840441 38828,6917.879,95.438,540.555,538.933,0.0
54099.0,STARLINK-5198,PAYLOAD,2023-06-30 15:25:13,15.08831794,0.0001116,53.2171,66.7466,86.9895,273.1224,1.3998e-05,-6.5e-07,0.0,0 STARLINK-5198,1 54099U 22136BA  23181.64251564 -.00000065  00000-0  13998-4 0  9995,2 54099  53.2171  66.7466 0001116  86.9895 273.1224 15.08831794 39051,6917.905,95.438,540.543,538.998,0.0
54099.0,STARLINK-5198,PAYLOAD,2023-07-02 00:48:18,15.08842758,0.0001091,53.2169,60.5002,80.0471,280.0644,5.3925e-05,5.71e-06,0.0,0 STARLINK-5198,1 54099U 22136BA  23183.03355239  .00000571  00000-0  53925-4 0  9999,2 54099  53.2169  60.5002 0001091  80.0471 280.0644 15.08842758 39261,6917.872,95.437,540.492,538.982,0.0
54099.0,STARLINK-5198,PAYLOAD,2023-07-03 08:36:01,15.08840267,0.0001104,53.2171,54.5524,88.6989,271.4129,5.5628e-05,5.98e-06,0.0,0 STARLINK-5198,1 54099U 22136BA  23184.35835477  .00000598  00000-0  55628-4 0  9993,2 54099  53.2171  54.5524 0001104  88.6989 271.4129 15.08840267 39466,6917.88,95.438,540.508,538.981,0.0
